SPACEBEE-7              
1 43816U 18099BL  24154.17585514  .00013414  00000+0  80063-3 0  9993
2 43816  97.5498 218.0605 0008852 346.8586  13.2412 15.11217011300142
SPACEBEE-6              
1 43818U 18099BN  24153.18404046  .00028106  00000+0  12162-2 0  9993
2 43818  97.5412 222.1617 0006923 348.5061  11.6016 15.22375856300475
SPACEBEE-63             
1 47442U 21006AF  24154.14195622  .00430210  70118-4  15532-2 0  9995
2 47442  97.3155 219.7897 0009598 239.1336 120.8993 15.88544772186709
SPACEBEE-57             
1 47465U 21006BE  24154.14933788  .00458243  00000+0  19031-2 0  9995
2 47465  97.3130 218.5379 0008357 231.5952 128.4568 15.84585473186689
SPACEBEE-167            
1 55087U 23001CG  24153.15538737  .00059966  00000+0  13354-2 0  9997
2 55087  97.4217 218.3918 0010625 201.4652 158.6151 15.43355365 78555
SPACEBEE-163            
1 55089U 23001CJ  24153.71363163  .00083751  00000+0  13796-2 0  9999
2 55089  97.4145 220.4057 0009709 197.9700 162.1210 15.51983612 78747
SPACEBEE-164            
1 55091U 23001CL  24153.17685596  .00060819  00000+0  12427-2 0  9999
2 55091  97.4207 218.9469 0010717 199.5444 160.5396 15.45893652 78599
SPACEBEE-166            
1 55092U 23001CM  24154.48517421  .00079424  00000+0  13647-2 0  9993
2 55092  97.4178 221.4090 0011243 194.1628 165.9310 15.50795128 78877
SPACEBEE-165            
1 55094U 23001CP  24153.73367042  .00067333  00000+0  13024-2 0  9999
2 55094  97.4200 219.8609 0010278 196.9288 163.1620 15.47467363 78700
SPACEBEE-162            
1 55095U 23001CQ  24154.15019962  .00062266  00000+0  12489-2 0  9996
2 55095  97.4208 220.0906 0010802 196.0067 164.0843 15.46427830 78758
SPACEBEE-161            
1 55096U 23001CR  24154.17005883  .00075289  00000+0  14814-2 0  9999
2 55096  97.4203 220.2148 0010536 195.4078 164.6853 15.46934952 78769
SPACEBEE-160            
1 55097U 23001CS  24154.18250445  .00063423  00000+0  12193-2 0  9992
2 55097  97.4205 220.3308 0010541 196.4787 163.6122 15.47657697 78773
SPACEBEE-156            
1 55099U 23001CU  24153.16858429  .00069862  00000+0  13286-2 0  9994
2 55099  97.4198 219.4034 0010782 198.3918 161.6943 15.47941004 78626
SPACEBEE-158            
1 55100U 23001CV  24154.12582145  .00082088  00000+0  15506-2 0  9995
2 55100  97.4212 220.3247 0011306 196.3800 163.7086 15.48079700 78766
SPACEBEE-159            
1 55101U 23001CW  24153.70863740  .00084173  00000+0  14135-2 0  9996
2 55101  97.4182 220.6657 0010995 196.6436 163.4457 15.51426430 78750
SPACEBEE-157            
1 55102U 23001CX  24153.83580464  .00092404  00000+0  15416-2 0  9999
2 55102  97.4168 220.8609 0010611 196.2491 163.8423 15.51583751 78786
SPACEBEE-179            
1 56969U 23084AP  24154.33761933  .00038314  00000+0  11391-2 0  9998
2 56969  97.5365 276.0078 0007874  53.0986 307.0977 15.34620491 54062
SPACEBEE-177            
1 56972U 23084AS  24154.03340671  .00047949  00000+0  13423-2 0  9993
2 56972  97.5348 276.0964 0007405  49.7653 310.4237 15.36461733 54043
SPACEBEE-178            
1 56973U 23084AT  24154.29544167  .00039968  00000+0  11880-2 0  9995
2 56973  97.5390 275.9883 0008072  54.7969 305.4028 15.34616830 54057
SPACEBEE-176            
1 56975U 23084AV  24154.33217844  .00040177  00000+0  11663-2 0  9994
2 56975  97.5365 276.1780 0007984  51.2093 308.9862 15.35361797 54077
SPACEBEE-174            
1 56976U 23084AW  24154.28704712  .00040742  00000+0  11640-2 0  9997
2 56976  97.5363 276.2416 0007755  50.1880 310.0045 15.35860730 54079
SPACEBEE-173            
1 56978U 23084AY  24154.33673438  .00041232  00000+0  11726-2 0  9995
2 56978  97.5368 276.3342 0007644  50.8537 309.3385 15.36002949 54088
SPACEBEE-172            
1 56979U 23084AZ  24153.57105831  .00041067  00000+0  11698-2 0  9992
2 56979  97.5353 275.4892 0007934  55.1298 305.0691 15.35950562 53968
SPACEBEE-171            
1 56980U 23084BA  24154.32202468  .00041734  00000+0  11806-2 0  9994
2 56980  97.5362 276.3526 0007913  49.8079 310.3856 15.36163810 54087
SPACEBEE-169            
1 56982U 23084BC  24154.31427972  .00044299  00000+0  12448-2 0  9996
2 56982  97.5350 276.1524 0007801  50.0211 310.1716 15.36360517 54075
SPACEBEE-170            
1 56983U 23084BD  24153.84990613  .00037159  00000+0  10732-2 0  9992
2 56983  97.5399 275.8113 0007818  51.7540 308.4405 15.35541139 54008
SPACEBEE-168            
1 56984U 23084BE  24153.30888251  .00060654  00000+0  14801-2 0  9995
2 56984  97.5323 275.8665 0006236  41.0618 319.1096 15.40637453 53969
SPACEBEE-175            
1 56985U 23084BF  24154.13351564  .00048153  00000+0  13660-2 0  9992
2 56985  97.5378 276.1905 0008591  55.2774 304.9277 15.36036689 54050
